OBJECT_NAME,OBJECT_ID,EPOCH,MEAN_MOTION,ECCENTRICITY,INCLINATION,RA_OF_ASC_NODE,ARG_OF_PERICENTER,MEAN_ANOMALY,EPHEMERIS_TYPE,CLASSIFICATION_TYPE,NORAD_CAT_ID,ELEMENT_SET_NO,REV_AT_EPOCH,BSTAR,MEAN_MOTION_DOT,MEAN_MOTION_DDOT
KUIPER-00603,2026-118W,2026-06-16T05:15:09.303552,15.37559003,.00054711,51.8681,57.9420,156.7119,203.4117,0,U,69287,999,383,.55122011E-3,.20303E-3,0
KUIPER-00605,2026-118X,2026-06-16T03:49:17.340672,15.37033399,.00073477,51.8675,58.2911,163.9933,196.1287,0,U,69288,999,382,.55359404E-3,.2005E-3,0
KUIPER-00606,2026-118Y,2026-06-16T05:11:32.804160,15.37696402,.00045948,51.8704,57.9259,147.7104,212.4165,0,U,69289,999,383,-.28076725E-3,-.10939E-3,0
KUIPER-00607,2026-118Z,2026-06-16T05:16:43.613472,15.37429354,.00060653,51.8688,57.9487,158.4396,201.6847,0,U,69290,999,383,.61681489E-3,.22679E-3,0
KUIPER-00608,2026-118AA,2026-06-16T05:38:26.585088,15.35241465,.0008507,51.8609,58.0399,173.9696,186.1394,0,U,69291,999,383,.46803621E-3,.15926E-3,0
KUIPER-00610,2026-118AB,2026-06-16T05:02:29.482080,15.38375643,.00027125,51.8729,57.8817,133.9826,226.1385,0,U,69292,999,383,.45510312E-3,.17138E-3,0
KUIPER-00613,2026-118AC,2026-06-16T04:11:08.928096,15.34978170,.00099642,51.8634,58.3860,179.5755,180.5241,0,U,69293,999,382,.483171E-3,.1632E-3,0
KUIPER-00618,2026-118AD,2026-06-16T04:57:07.598016,15.38630861,.00018251,51.8722,57.8574,88.6248,271.4948,0,U,69294,999,383,.60210781E-3,.23013E-3,0
KUIPER-00620,2026-118AE,2026-06-16T05:01:39.593856,15.38292802,.00028532,51.8722,57.8799,116.5721,243.5559,0,U,69295,999,383,.5499756E-3,.20747E-3,0
STARLINK-37501,2026-119A,2026-06-16T06:00:02.000160,15.69728493,.00017848,97.2836,193.0101,90.5398,150.7686,0,U,69296,999,373,-.24560341E-1,-.2540582E-1,0
STARLINK-37496,2026-119B,2026-06-16T06:00:02.000160,15.68013210,.00014655,97.2837,193.0129,77.9616,161.3227,0,U,69297,999,373,-.25756346E-1,-.2488862E-1,0
STARLINK-37519,2026-119C,2026-06-16T06:00:02.000160,15.68976282,.00013733,97.2838,193.0179,85.7943,176.0362,0,U,69298,999,373,-.15939285E-1,-.1624721E-1,0
STARLINK-37455,2026-119D,2026-06-16T06:00:02.000160,15.59040314,.00018323,97.2844,192.9753,74.4476,77.9050,0,U,69299,999,373,-.37325713E-1,-.2524081E-1,0
STARLINK-37456,2026-119E,2026-06-16T06:00:02.000160,15.68197416,.00016881,97.2839,193.0211,93.1080,174.3602,0,U,69300,999,373,-.26800712E-1,-.2593648E-1,0
STARLINK-37630,2026-119F,2026-06-16T06:00:02.000160,15.51574448,.00010265,97.2836,192.9113,82.6866,277.6074,0,U,69301,999,389,-.19321578E-1,-.1040489E-1,0
STARLINK-37804,2026-119G,2026-06-16T06:00:02.000160,15.49161350,.00014424,97.2845,192.9052,85.8890,270.5500,0,U,69302,999,389,.99319618E-4,.531E-4,0
STARLINK-37730,2026-119H,2026-06-16T06:00:02.000160,15.75048732,.0002271,97.2839,193.0477,114.0094,217.4601,0,U,69303,999,389,-.20890545E-1,-.2689832E-1,0
STARLINK-37731,2026-119J,2026-06-16T06:00:02.000160,15.49181162,.00013382,97.2845,192.9021,63.2255,287.1780,0,U,69304,999,389,-.76018758E-4,-.4222E-4,0
STARLINK-37734,2026-119K,2026-06-16T06:00:02.000160,15.65561774,.00014278,97.2837,193.0227,86.8143,182.3706,0,U,69305,999,389,-.12994145E-1,-.1174381E-1,0
STARLINK-37701,2026-119L,2026-06-16T06:00:02.000160,15.74010608,.0001164,97.2840,193.0466,99.9653,228.6854,0,U,69306,999,389,-.21171894E-1,-.2615174E-1,0
STARLINK-37732,2026-119M,2026-06-16T07:33:34.283232,15.79848822,.00008917,97.2832,193.1258,117.7575,242.3783,0,U,69307,999,390,-.33961606E-2,-.582656E-2,0
STARLINK-37689,2026-119N,2026-06-16T06:00:02.000160,15.49136210,.00007809,97.2845,192.9092,51.1407,318.3919,0,U,69308,999,389,.7472738E-4,.3968E-4,0
STARLINK-37619,2026-119P,2026-06-16T06:00:34.807968,15.78357387,.00010337,97.2836,193.0601,221.2541,138.8648,0,U,69309,999,389,-.43861388E-2,-.694484E-2,0
STARLINK-37794,2026-119Q,2026-06-16T06:00:02.000160,15.64436130,.0001471,97.2838,193.0270,105.0114,177.4491,0,U,69310,999,389,-.30585643E-1,-.2548322E-1,0
STARLINK-37795,2026-119R,2026-06-16T06:00:02.000160,15.49152432,.00008789,97.2842,192.9216,68.4603,326.4777,0,U,69311,999,389,.74350341E-4,.395E-4,0
STARLINK-37790,2026-119S,2026-06-16T06:00:02.000160,15.72057675,.00010937,97.2846,193.0559,120.8035,231.0832,0,U,69312,999,389,-.21561875E-1,-.2415569E-1,0
STARLINK-37676,2026-119T,2026-06-16T05:51:42.100992,15.80876762,.00013537,97.2831,193.0683,62.5784,297.5621,0,U,69313,999,389,.77529383E-3,.151387E-2,0
STARLINK-37617,2026-119U,2026-06-16T06:00:02.000160,15.70273256,.00010512,97.2847,193.0589,79.6177,281.9681,0,U,69314,999,389,-.24842858E-1,-.2616307E-1,0
STARLINK-37627,2026-119V,2026-06-14T18:53:32.152416,15.80230891,.00014259,97.2817,191.5290,72.4250,287.7173,0,U,69315,999,366,-.32968523E-2,-.576083E-2,0
STARLINK-37738,2026-119W,2026-06-16T06:00:02.000160,15.70762603,.00011054,97.2844,193.0561,88.6833,265.3020,0,U,69316,999,389,-.24406376E-1,-.2622794E-1,0
