KUIPER-00603            
1 69287U 26118W   26167.21885768  .00020303  00000+0  55122-3 0  9992
2 69287  51.8681  57.9420 0005471 156.7119 203.4117 15.37559003  3837
KUIPER-00605            
1 69288U 26118X   26167.15922848  .00020050  00000+0  55359-3 0  9998
2 69288  51.8675  58.2911 0007347 163.9933 196.1287 15.37033399  3828
KUIPER-00606            
1 69289U 26118Y   26167.21635190 -.00010939  00000+0 -28077-3 0  9991
2 69289  51.8704  57.9259 0004594 147.7104 212.4165 15.37696402  3832
KUIPER-00607            
1 69290U 26118Z   26167.21994923  .00022679  00000+0  61681-3 0  9995
2 69290  51.8688  57.9487 0006065 158.4396 201.6847 15.37429354  3832
KUIPER-00608            
1 69291U 26118AA  26167.23502992  .00015926  00000+0  46804-3 0  9996
2 69291  51.8609  58.0399 0008507 173.9696 186.1394 15.35241465  3835
KUIPER-00610            
1 69292U 26118AB  26167.21006345  .00017138  00000+0  45510-3 0  9996
2 69292  51.8729  57.8817 0002712 133.9826 226.1385 15.38375643  3838
KUIPER-00613            
1 69293U 26118AC  26167.17440889  .00016320  00000+0  48317-3 0  9997
2 69293  51.8634  58.3860 0009964 179.5755 180.5241 15.34978170  3824
KUIPER-00618            
1 69294U 26118AD  26167.20633794  .00023013  00000+0  60211-3 0  9995
2 69294  51.8722  57.8574 0001825  88.6248 271.4948 15.38630861  3835
KUIPER-00620            
1 69295U 26118AE  26167.20948604  .00020747  00000+0  54998-3 0  9991
2 69295  51.8722  57.8799 0002853 116.5721 243.5559 15.38292802  3831
STARLINK-37501          
1 69296U 26119A   26167.25002315 -.02540582  00000+0 -24560-1 0  9996
2 69296  97.2836 193.0101 0001784  90.5398 150.7686 15.69728493  3738
STARLINK-37496          
1 69297U 26119B   26167.25002315 -.02488862  00000+0 -25756-1 0  9997
2 69297  97.2837 193.0129 0001465  77.9616 161.3227 15.68013210  3730
STARLINK-37519          
1 69298U 26119C   26167.25002315 -.01624721  00000+0 -15939-1 0  9995
2 69298  97.2838 193.0179 0001373  85.7943 176.0362 15.68976282  3735
STARLINK-37455          
1 69299U 26119D   26167.25002315 -.02524081  00000+0 -37326-1 0  9999
2 69299  97.2844 192.9753 0001832  74.4476  77.9050 15.59040314  3736
STARLINK-37456          
1 69300U 26119E   26167.25002315 -.02593648  00000+0 -26801-1 0  9993
2 69300  97.2839 193.0211 0001688  93.1080 174.3602 15.68197416  3733
STARLINK-37630          
1 69301U 26119F   26167.25002315 -.01040489  00000+0 -19322-1 0  9993
2 69301  97.2836 192.9113 0001026  82.6866 277.6074 15.51574448  3894
STARLINK-37804          
1 69302U 26119G   26167.25002315  .00005310  00000+0  99320-4 0  9994
2 69302  97.2845 192.9052 0001442  85.8890 270.5500 15.49161350  3898
STARLINK-37730          
1 69303U 26119H   26167.25002315 -.02689832  00000+0 -20891-1 0  9990
2 69303  97.2839 193.0477 0002271 114.0094 217.4601 15.75048732  3896
STARLINK-37731          
1 69304U 26119J   26167.25002315 -.00004222  00000+0 -76019-4 0  9999
2 69304  97.2845 192.9021 0001338  63.2255 287.1780 15.49181162  3892
STARLINK-37734          
1 69305U 26119K   26167.25002315 -.01174381  00000+0 -12994-1 0  9994
2 69305  97.2837 193.0227 0001427  86.8143 182.3706 15.65561774  3893
STARLINK-37701          
1 69306U 26119L   26167.25002315 -.02615174  00000+0 -21172-1 0  9994
2 69306  97.2840 193.0466 0001164  99.9653 228.6854 15.74010608  3895
STARLINK-37732          
1 69307U 26119M   26167.31498013 -.00582656  00000+0 -33962-2 0  9993
2 69307  97.2832 193.1258 0000891 117.7575 242.3783 15.79848822  3903
STARLINK-37689          
1 69308U 26119N   26167.25002315  .00003968  00000+0  74727-4 0  9991
2 69308  97.2845 192.9092 0000780  51.1407 318.3919 15.49136210  3894
STARLINK-37619          
1 69309U 26119P   26167.25040287 -.00694484  00000+0 -43861-2 0  9996
2 69309  97.2836 193.0601 0001033 221.2541 138.8648 15.78357387  3890
STARLINK-37794          
1 69310U 26119Q   26167.25002315 -.02548322  00000+0 -30586-1 0  9998
2 69310  97.2838 193.0270 0001471 105.0114 177.4491 15.64436130  3891
STARLINK-37795          
1 69311U 26119R   26167.25002315  .00003950  00000+0  74350-4 0  9998
2 69311  97.2842 192.9216 0000878  68.4603 326.4777 15.49152432  3896
STARLINK-37790          
1 69312U 26119S   26167.25002315 -.02415569  00000+0 -21562-1 0  9990
2 69312  97.2846 193.0559 0001093 120.8035 231.0832 15.72057675  3897
STARLINK-37676          
1 69313U 26119T   26167.24423728  .00151387  00000+0  77529-3 0  9992
2 69313  97.2831 193.0683 0001353  62.5784 297.5621 15.80876762  3890
STARLINK-37617          
1 69314U 26119U   26167.25002315 -.02616307  00000+0 -24843-1 0  9990
2 69314  97.2847 193.0589 0001051  79.6177 281.9681 15.70273256  3894
STARLINK-37627          
1 69315U 26119V   26165.78717769 -.00576083  00000+0 -32969-2 0  9996
2 69315  97.2817 191.5290 0001425  72.4250 287.7173 15.80230891  3666
STARLINK-37738          
1 69316U 26119W   26167.25002315 -.02622794  00000+0 -24406-1 0  9994
2 69316  97.2844 193.0561 0001105  88.6833 265.3020 15.70762603  3894
